{"type": "FeatureCollection", "features": [{"type": "Feature", "properties": {"name": "Berg Hill Greenleaf Ruscitti", "building_id": "57aee387-578f-4c15-80d5-2d1cb234dfc0"}, "geometry": {"type": "Point", "coordinates": [-105.27279228382226, 40.01900814023506]}}, {"type": "Feature", "properties": {"name": "Pizzeria Alberico", "building_id": "0cfd8a16-1c35-4c34-a100-9201483b2cee"}, "geometry": {"type": "Point", "coordinates": [-105.2726733248667, 40.01930754569416]}}, {"type": "Feature", "properties": {"name": "MOUNTAIN SUN PUB & BREWERY", "building_id": "67797069-8ea7-4f97-8280-4ab9392d1bdf"}, "geometry": {"type": "Point", "coordinates": [-105.27521183177772, 40.019023500070254]}}, {"type": "Feature", "properties": {"name": "sweetgreen", "building_id": "68f5bdb6-4579-41ee-913e-ceb8f7534032"}, "geometry": {"type": "Point", "coordinates": [-105.27423039926155, 40.01943923860501]}}, {"type": "Feature", "properties": {"name": "Two Sole Sisters", "building_id": "6cf6ba7b-4258-44dc-85f7-7c6ac3d89893"}, "geometry": {"type": "Point", "coordinates": [-105.27325109611836, 40.019443327061616]}}, {"type": "Feature", "properties": {"name": "Sunflower Bank", "building_id": "18bb22d9-a5e8-4eb1-b827-088a1335e0ea"}, "geometry": {"type": "Point", "coordinates": [-105.27222727606339, 40.019352634999365]}}, {"type": "Feature", "properties": {"name": "Art + Soul", "building_id": "954cb30c-1eb3-41e2-b7b0-f6640a4c3595"}, "geometry": {"type": "Point", "coordinates": [-105.27577665706583, 40.01887585905481]}}, {"type": "Feature", "properties": {"name": "patagonia", "building_id": "bc52c1b9-b81b-43c5-b284-bff0cdd14419"}, "geometry": {"type": "Point", "coordinates": [-105.27388832668872, 40.018901683635825]}}, {"type": "Feature", "properties": {"name": "Colorado Building", "building_id": "08e9d7c9-1c95-4865-894e-39f9237b3674"}, "geometry": {"type": "Point", "coordinates": [-105.2772951958261, 40.017503487415006]}}, {"type": "Feature", "properties": {"name": "Barbershop", "building_id": "8693000c-1eb6-4ea8-87d6-665cba915142"}, "geometry": {"type": "Point", "coordinates": [-105.27364930193194, 40.01909363878278]}}, {"type": "Feature", "properties": {"name": "Bliss", "building_id": "a9e1cc82-e147-4256-88eb-78be4aea3000"}, "geometry": {"type": "Point", "coordinates": [-105.27389283663098, 40.01941325427227]}}, {"type": "Feature", "properties": {"name": "OZO Coffee Company", "building_id": "e6ca7522-53d7-4842-a190-287b28b224f6"}, "geometry": {"type": "Point", "coordinates": [-105.27552943213287, 40.01914882802224]}}, {"type": "Feature", "properties": {"name": "Free People", "building_id": "917eb9cb-ead3-412a-b9f1-cbda8c48ebe4"}, "geometry": {"type": "Point", "coordinates": [-105.27916383629795, 40.01796884272875]}}, {"type": "Feature", "properties": {"name": "Colorado Glass Works", "building_id": "be1c0aaf-3b66-484e-bed1-b644789d844e"}, "geometry": {"type": "Point", "coordinates": [-105.27546228067303, 40.018729409079604]}}, {"type": "Feature", "properties": {"name": "Weekends", "building_id": "c9073cdc-0448-458e-9964-a2e6a344ecf8"}, "geometry": {"type": "Point", "coordinates": [-105.2797646156335, 40.01755346311358]}}, {"type": "Feature", "properties": {"name": "Paradise Found Records & Music", "building_id": "968fdf3f-8839-4b23-9576-8d4b67a9dc2c"}, "geometry": {"type": "Point", "coordinates": [-105.273951406262, 40.01901235817284]}}, {"type": "Feature", "properties": {"name": "Beat Book Shop", "building_id": "5758580b-3292-4957-a4bd-984cde5a758d"}, "geometry": {"type": "Point", "coordinates": [-105.27955830181862, 40.017836337359]}}, {"type": "Feature", "properties": {"name": "Backcountry", "building_id": "6bf9d300-d51d-428d-b923-519fc0f90351"}, "geometry": {"type": "Point", "coordinates": [-105.27597560389609, 40.01931003193821]}}, {"type": "Feature", "properties": {"name": "Savannah Bee Company", "building_id": "ece9b307-e803-4b21-ad27-d5f2c8ca32d9"}, "geometry": {"type": "Point", "coordinates": [-105.27916808992269, 40.01797058089854]}}, {"type": "Feature", "properties": {"name": "Lula Faye Fiber", "building_id": "a1315fad-c9f4-4402-aabb-5b48074ac82f"}, "geometry": {"type": "Point", "coordinates": [-105.27384035011562, 40.01961617721199]}}, {"type": "Feature", "properties": {"name": "1500 Pearl Street", "building_id": "3d9ea9f8-f9b5-465b-9a7d-df43b63a12ca"}, "geometry": {"type": "Point", "coordinates": [-105.27562258902107, 40.01849537396682]}}, {"type": "Feature", "properties": {"name": "Hicken & Beer", "building_id": "816c76e7-521e-415e-9acd-16ce6d7e91e5"}, "geometry": {"type": "Point", "coordinates": [-105.27981171551356, 40.018848671766776]}}, {"type": "Feature", "properties": {"name": "Earthbound Trading Co", "building_id": "7c926be6-519a-4868-be1f-1dd534648319"}, "geometry": {"type": "Point", "coordinates": [-105.27929644084308, 40.017998022018766]}}, {"type": "Feature", "properties": {"name": "Change Home Mortgage", "building_id": "5a1dbb17-972e-4966-b564-7f89e666140d"}, "geometry": {"type": "Point", "coordinates": [-105.273847921555, 40.019508700391164]}}, {"type": "Feature", "properties": {"name": "Gelato Boy", "building_id": "718f4030-0622-4356-bb3c-46eb1ba73ccc"}, "geometry": {"type": "Point", "coordinates": [-105.28206623325187, 40.01780813191608]}}, {"type": "Feature", "properties": {"name": "Pearl Street", "building_id": "d661159e-04f0-4494-b9fe-131d83993b40"}, "geometry": {"type": "Point", "coordinates": [-105.27298640498707, 40.01911824929539]}}, {"type": "Feature", "properties": {"name": "Boulder Valley Real Estate", "building_id": "9022e165-3bc1-48c6-a382-4cfc8d5eb9fe"}, "geometry": {"type": "Point", "coordinates": [-105.2766439747685, 40.01900985618159]}}, {"type": "Feature", "properties": {"name": "Southwest Research", "building_id": "f4fd1e3f-0eef-4ef1-8327-4306110f603e"}, "geometry": {"type": "Point", "coordinates": [-105.27803612244738, 40.01737166884577]}}, {"type": "Feature", "properties": {"name": "Liberty Puzzles", "building_id": "97f698fd-fd27-452b-aca9-1f61a57b150d"}, "geometry": {"type": "Point", "coordinates": [-105.27600982135147, 40.01854491886135]}}, {"type": "Feature", "properties": {"name": "17 Walnut", "building_id": "1377c5fb-63c5-4e68-bfef-e9f3445cd623"}, "geometry": {"type": "Point", "coordinates": [-105.27284975929959, 40.018739345273914]}}, {"type": "Feature", "properties": {"name": "Pizza Colore", "building_id": "78353c93-69d6-40ef-a46d-f06ac76e65fc"}, "geometry": {"type": "Point", "coordinates": [-105.2783132585701, 40.0180869338406]}}, {"type": "Feature", "properties": {"name": "ASCENT", "building_id": "99a7504f-b210-48bf-b7e2-8c7af62291e2"}, "geometry": {"type": "Point", "coordinates": [-105.27380904029944, 40.01964747725706]}}]}