{"type": "FeatureCollection", "features": [{"type": "Feature", "properties": {}, "geometry": {"type": "Point", "coordinates": [-105.2783089, 40.017002]}}, {"type": "Feature", "properties": {}, "geometry": {"type": "Point", "coordinates": [-105.2785043, 40.0181511]}}, {"type": "Feature", "properties": {}, "geometry": {"type": "Point", "coordinates": [-105.2784363, 40.0181646]}}, {"type": "Feature", "properties": {}, "geometry": {"type": "Point", "coordinates": [-105.2778113, 40.0182884]}}, {"type": "Feature", "properties": {}, "geometry": {"type": "Point", "coordinates": [-105.27754, 40.0183421]}}, {"type": "Feature", "properties": {}, "geometry": {"type": "Point", "coordinates": [-105.2774032, 40.0183041]}}, {"type": "Feature", "properties": {}, "geometry": {"type": "Point", "coordinates": [-105.277601, 40.01833]}}, {"type": "Feature", "properties": {}, "geometry": {"type": "Point", "coordinates": [-105.2776704, 40.0183163]}}, {"type": "Feature", "properties": {}, "geometry": {"type": "Point", "coordinates": [-105.2779503, 40.0182608]}}, {"type": "Feature", "properties": {}, "geometry": {"type": "Point", "coordinates": [-105.2778686, 40.018277]}}, {"type": "Feature", "properties": {}, "geometry": {"type": "Point", "coordinates": [-105.2780175, 40.0182475]}}, {"type": "Feature", "properties": {}, "geometry": {"type": "Point", "coordinates": [-105.2780862, 40.0182339]}}, {"type": "Feature", "properties": {}, "geometry": {"type": "Point", "coordinates": [-105.2781554, 40.0182202]}}, {"type": "Feature", "properties": {}, "geometry": {"type": "Point", "coordinates": [-105.2782338, 40.0182047]}}, {"type": "Feature", "properties": {}, "geometry": {"type": "Point", "coordinates": [-105.2783606, 40.0181796]}}, {"type": "Feature", "properties": {}, "geometry": {"type": "Point", "coordinates": [-105.2806577, 40.0177717]}}, {"type": "Feature", "properties": {}, "geometry": {"type": "Point", "coordinates": [-105.2807046, 40.0177604]}}, {"type": "Feature", "properties": {}, "geometry": {"type": "Point", "coordinates": [-105.2807087, 40.0177748]}}, {"type": "Feature", "properties": {}, "geometry": {"type": "Point", "coordinates": [-105.2806376, 40.0176988]}}, {"type": "Feature", "properties": {}, "geometry": {"type": "Point", "coordinates": [-105.2806778, 40.0177204]}}, {"type": "Feature", "properties": {}, "geometry": {"type": "Point", "coordinates": [-105.2806563, 40.0176937]}}, {"type": "Feature", "properties": {}, "geometry": {"type": "Point", "coordinates": [-105.2806872, 40.0176978]}}, {"type": "Feature", "properties": {}, "geometry": {"type": "Point", "coordinates": [-105.280647, 40.0177163]}}, {"type": "Feature", "properties": {}, "geometry": {"type": "Point", "coordinates": [-105.2807046, 40.0177101]}}, {"type": "Feature", "properties": {}, "geometry": {"type": "Point", "coordinates": [-105.2806791, 40.0177759]}}, {"type": "Feature", "properties": {}, "geometry": {"type": "Point", "coordinates": [-105.2807288, 40.0177615]}}, {"type": "Feature", "properties": {}, "geometry": {"type": "Point", "coordinates": [-105.2808173, 40.0177522]}}, {"type": "Feature", "properties": {}, "geometry": {"type": "Point", "coordinates": [-105.280891, 40.0177368]}}, {"type": "Feature", "properties": {}, "geometry": {"type": "Point", "coordinates": [-105.2809433, 40.0177255]}}, {"type": "Feature", "properties": {}, "geometry": {"type": "Point", "coordinates": [-105.2805264, 40.0177557]}}, {"type": "Feature", "properties": {}, "geometry": {"type": "Point", "coordinates": [-105.280515, 40.0177172]}}, {"type": "Feature", "properties": {}, "geometry": {"type": "Point", "coordinates": [-105.2805579, 40.0178461]}}, {"type": "Feature", "properties": {}, "geometry": {"type": "Point", "coordinates": [-105.2804419, 40.0178628]}}, {"type": "Feature", "properties": {}, "geometry": {"type": "Point", "coordinates": [-105.2803923, 40.0177416]}}, {"type": "Feature", "properties": {}, "geometry": {"type": "Point", "coordinates": [-105.280342, 40.0178895]}}, {"type": "Feature", "properties": {}, "geometry": {"type": "Point", "coordinates": [-105.2802924, 40.0177621]}}, {"type": "Feature", "properties": {}, "geometry": {"type": "Point", "coordinates": [-105.2802368, 40.0178122]}}, {"type": "Feature", "properties": {}, "geometry": {"type": "Point", "coordinates": [-105.2802254, 40.0177737]}}, {"type": "Feature", "properties": {}, "geometry": {"type": "Point", "coordinates": [-105.2802683, 40.0179026]}}, {"type": "Feature", "properties": {}, "geometry": {"type": "Point", "coordinates": [-105.2801523, 40.0178255]}}, {"type": "Feature", "properties": {}, "geometry": {"type": "Point", "coordinates": [-105.2801409, 40.017787]}}, {"type": "Feature", "properties": {}, "geometry": {"type": "Point", "coordinates": [-105.2801838, 40.0179159]}}, {"type": "Feature", "properties": {}, "geometry": {"type": "Point", "coordinates": [-105.2788085, 40.0183034]}}, {"type": "Feature", "properties": {}, "geometry": {"type": "Point", "coordinates": [-105.2796855, 40.0179773]}}, {"type": "Feature", "properties": {}, "geometry": {"type": "Point", "coordinates": [-105.2797609, 40.0179603]}}, {"type": "Feature", "properties": {}, "geometry": {"type": "Point", "coordinates": [-105.2798499, 40.0179403]}}, {"type": "Feature", "properties": {}, "geometry": {"type": "Point", "coordinates": [-105.2798653, 40.0179963]}}, {"type": "Feature", "properties": {}, "geometry": {"type": "Point", "coordinates": [-105.2798244, 40.0178589]}}, {"type": "Feature", "properties": {}, "geometry": {"type": "Point", "coordinates": [-105.2797265, 40.0178822]}}, {"type": "Feature", "properties": {}, "geometry": {"type": "Point", "coordinates": [-105.2796439, 40.0178984]}}, {"type": "Feature", "properties": {}, "geometry": {"type": "Point", "coordinates": [-105.2795246, 40.0179295]}}, {"type": "Feature", "properties": {}, "geometry": {"type": "Point", "coordinates": [-105.2795079, 40.017947]}}, {"type": "Feature", "properties": {}, "geometry": {"type": "Point", "coordinates": [-105.2797741, 40.0180138]}}, {"type": "Feature", "properties": {}, "geometry": {"type": "Point", "coordinates": [-105.2797087, 40.0180264]}}, {"type": "Feature", "properties": {}, "geometry": {"type": "Point", "coordinates": [-105.2796505, 40.0180376]}}, {"type": "Feature", "properties": {}, "geometry": {"type": "Point", "coordinates": [-105.2795967, 40.0180479]}}, {"type": "Feature", "properties": {}, "geometry": {"type": "Point", "coordinates": [-105.2795011, 40.0180663]}}, {"type": "Feature", "properties": {}, "geometry": {"type": "Point", "coordinates": [-105.2794625, 40.017934]}}, {"type": "Feature", "properties": {}, "geometry": {"type": "Point", "coordinates": [-105.2794071, 40.0179449]}}, {"type": "Feature", "properties": {}, "geometry": {"type": "Point", "coordinates": [-105.2793311, 40.0179598]}}, {"type": "Feature", "properties": {}, "geometry": {"type": "Point", "coordinates": [-105.2792451, 40.0179767]}}, {"type": "Feature", "properties": {}, "geometry": {"type": "Point", "coordinates": [-105.279235, 40.0180785]}}, {"type": "Feature", "properties": {}, "geometry": {"type": "Point", "coordinates": [-105.2792383, 40.0181168]}}, {"type": "Feature", "properties": {}, "geometry": {"type": "Point", "coordinates": [-105.279155, 40.0181328]}}, {"type": "Feature", "properties": {}, "geometry": {"type": "Point", "coordinates": [-105.2790168, 40.0181594]}}, {"type": "Feature", "properties": {}, "geometry": {"type": "Point", "coordinates": [-105.2789841, 40.0180708]}}, {"type": "Feature", "properties": {}, "geometry": {"type": "Point", "coordinates": [-105.279086, 40.0181461]}}, {"type": "Feature", "properties": {}, "geometry": {"type": "Point", "coordinates": [-105.2790527, 40.0180557]}}, {"type": "Feature", "properties": {}, "geometry": {"type": "Point", "coordinates": [-105.2790412, 40.0180167]}}, {"type": "Feature", "properties": {}, "geometry": {"type": "Point", "coordinates": [-105.2789476, 40.0181727]}}, {"type": "Feature", "properties": {}, "geometry": {"type": "Point", "coordinates": [-105.2788688, 40.0181879]}}, {"type": "Feature", "properties": {}, "geometry": {"type": "Point", "coordinates": [-105.2789155, 40.0180859]}}, {"type": "Feature", "properties": {}, "geometry": {"type": "Point", "coordinates": [-105.2789029, 40.0180439]}}, {"type": "Feature", "properties": {}, "geometry": {"type": "Point", "coordinates": [-105.2788373, 40.0180975]}}, {"type": "Feature", "properties": {}, "geometry": {"type": "Point", "coordinates": [-105.2788259, 40.018059]}}, {"type": "Feature", "properties": {}, "geometry": {"type": "Point", "coordinates": [-105.2783428, 40.018334]}}, {"type": "Feature", "properties": {}, "geometry": {"type": "Point", "coordinates": [-105.2798273, 40.0170812]}}, {"type": "Feature", "properties": {}, "geometry": {"type": "Point", "coordinates": [-105.2798507, 40.0171567]}}, {"type": "Feature", "properties": {}, "geometry": {"type": "Point", "coordinates": [-105.2798832, 40.0172517]}}, {"type": "Feature", "properties": {}, "geometry": {"type": "Point", "coordinates": [-105.2793944, 40.0172525]}}, {"type": "Feature", "properties": {}, "geometry": {"type": "Point", "coordinates": [-105.2791982, 40.0172945]}}, {"type": "Feature", "properties": {}, "geometry": {"type": "Point", "coordinates": [-105.2790996, 40.0173116]}}, {"type": "Feature", "properties": {}, "geometry": {"type": "Point", "coordinates": [-105.2790071, 40.0173303]}}, {"type": "Feature", "properties": {}, "geometry": {"type": "Point", "coordinates": [-105.2788781, 40.0173498]}}, {"type": "Feature", "properties": {}, "geometry": {"type": "Point", "coordinates": [-105.2787937, 40.0173832]}}, {"type": "Feature", "properties": {}, "geometry": {"type": "Point", "coordinates": [-105.2792409, 40.0174642]}}, {"type": "Feature", "properties": {}, "geometry": {"type": "Point", "coordinates": [-105.2791515, 40.0174844]}}, {"type": "Feature", "properties": {}, "geometry": {"type": "Point", "coordinates": [-105.2793354, 40.0174478]}}, {"type": "Feature", "properties": {}, "geometry": {"type": "Point", "coordinates": [-105.2794147, 40.0174315]}}, {"type": "Feature", "properties": {}, "geometry": {"type": "Point", "coordinates": [-105.2795051, 40.0174175]}}, {"type": "Feature", "properties": {}, "geometry": {"type": "Point", "coordinates": [-105.2796332, 40.0173856]}}, {"type": "Feature", "properties": {}, "geometry": {"type": "Point", "coordinates": [-105.2796454, 40.0173342]}}, {"type": "Feature", "properties": {}, "geometry": {"type": "Point", "coordinates": [-105.2796861, 40.0172945]}}, {"type": "Feature", "properties": {}, "geometry": {"type": "Point", "coordinates": [-105.2797094, 40.0173544]}}, {"type": "Feature", "properties": {}, "geometry": {"type": "Point", "coordinates": [-105.2795631, 40.0171225]}}, {"type": "Feature", "properties": {}, "geometry": {"type": "Point", "coordinates": [-105.2795041, 40.0170882]}}, {"type": "Feature", "properties": {}, "geometry": {"type": "Point", "coordinates": [-105.2794391, 40.0170711]}}, {"type": "Feature", "properties": {}, "geometry": {"type": "Point", "coordinates": [-105.2793557, 40.017061]}}, {"type": "Feature", "properties": {}, "geometry": {"type": "Point", "coordinates": [-105.2792511, 40.0170789]}}, {"type": "Feature", "properties": {}, "geometry": {"type": "Point", "coordinates": [-105.2791657, 40.017096]}}, {"type": "Feature", "properties": {}, "geometry": {"type": "Point", "coordinates": [-105.2790529, 40.017117]}}, {"type": "Feature", "properties": {}, "geometry": {"type": "Point", "coordinates": [-105.2789634, 40.0171381]}}, {"type": "Feature", "properties": {}, "geometry": {"type": "Point", "coordinates": [-105.278875, 40.0171536]}}, {"type": "Feature", "properties": {}, "geometry": {"type": "Point", "coordinates": [-105.2787825, 40.0171746]}}, {"type": "Feature", "properties": {}, "geometry": {"type": "Point", "coordinates": [-105.2786748, 40.0171925]}}, {"type": "Feature", "properties": {}, "geometry": {"type": "Point", "coordinates": [-105.2785833, 40.0172089]}}, {"type": "Feature", "properties": {}, "geometry": {"type": "Point", "coordinates": [-105.2785752, 40.0174237]}}, {"type": "Feature", "properties": {}, "geometry": {"type": "Point", "coordinates": [-105.2786341, 40.0175241]}}, {"type": "Feature", "properties": {}, "geometry": {"type": "Point", "coordinates": [-105.2788811, 40.0175226]}}, {"type": "Feature", "properties": {}, "geometry": {"type": "Point", "coordinates": [-105.279061, 40.0176386]}}, {"type": "Feature", "properties": {}, "geometry": {"type": "Point", "coordinates": [-105.2789665, 40.0176012]}}, {"type": "Feature", "properties": {}, "geometry": {"type": "Point", "coordinates": [-105.2791017, 40.0177008]}}, {"type": "Feature", "properties": {}, "geometry": {"type": "Point", "coordinates": [-105.278626, 40.0177008]}}, {"type": "Feature", "properties": {}, "geometry": {"type": "Point", "coordinates": [-105.2784796, 40.0178448]}}, {"type": "Feature", "properties": {}, "geometry": {"type": "Point", "coordinates": [-105.2784624, 40.0178028]}}, {"type": "Feature", "properties": {}, "geometry": {"type": "Point", "coordinates": [-105.2784369, 40.0177358]}}, {"type": "Feature", "properties": {}, "geometry": {"type": "Point", "coordinates": [-105.2781493, 40.0178043]}}, {"type": "Feature", "properties": {}, "geometry": {"type": "Point", "coordinates": [-105.2809819, 40.0172992]}}, {"type": "Feature", "properties": {}, "geometry": {"type": "Point", "coordinates": [-105.2732559, 40.018408]}}, {"type": "Feature", "properties": {}, "geometry": {"type": "Point", "coordinates": [-105.2732885, 40.0185073]}}, {"type": "Feature", "properties": {}, "geometry": {"type": "Point", "coordinates": [-105.2733317, 40.01862]}}, {"type": "Feature", "properties": {}, "geometry": {"type": "Point", "coordinates": [-105.2732991, 40.0182668]}}, {"type": "Feature", "properties": {}, "geometry": {"type": "Point", "coordinates": [-105.2734333, 40.01824]}}, {"type": "Feature", "properties": {}, "geometry": {"type": "Point", "coordinates": [-105.2735349, 40.0182203]}}, {"type": "Feature", "properties": {}, "geometry": {"type": "Point", "coordinates": [-105.2736271, 40.0182033]}}, {"type": "Feature", "properties": {}, "geometry": {"type": "Point", "coordinates": [-105.2737287, 40.0181836]}}, {"type": "Feature", "properties": {}, "geometry": {"type": "Point", "coordinates": [-105.2738116, 40.0181657]}}, {"type": "Feature", "properties": {}, "geometry": {"type": "Point", "coordinates": [-105.2739283, 40.0181434]}}, {"type": "Feature", "properties": {}, "geometry": {"type": "Point", "coordinates": [-105.2724631, 40.0184393]}}, {"type": "Feature", "properties": {}, "geometry": {"type": "Point", "coordinates": [-105.2723966, 40.0184545]}}, {"type": "Feature", "properties": {}, "geometry": {"type": "Point", "coordinates": [-105.2722775, 40.0184957]}}, {"type": "Feature", "properties": {}, "geometry": {"type": "Point", "coordinates": [-105.2735909, 40.0187666]}}, {"type": "Feature", "properties": {}, "geometry": {"type": "Point", "coordinates": [-105.2736983, 40.0187138]}}, {"type": "Feature", "properties": {}, "geometry": {"type": "Point", "coordinates": [-105.2737859, 40.0186754]}}, {"type": "Feature", "properties": {}, "geometry": {"type": "Point", "coordinates": [-105.2740463, 40.0190411]}}, {"type": "Feature", "properties": {}, "geometry": {"type": "Point", "coordinates": [-105.2741794, 40.0190116]}}, {"type": "Feature", "properties": {}, "geometry": {"type": "Point", "coordinates": [-105.2743463, 40.0189812]}}, {"type": "Feature", "properties": {}, "geometry": {"type": "Point", "coordinates": [-105.2745063, 40.0189481]}}, {"type": "Feature", "properties": {}, "geometry": {"type": "Point", "coordinates": [-105.2745711, 40.01909]}}, {"type": "Feature", "properties": {}, "geometry": {"type": "Point", "coordinates": [-105.2744182, 40.0191236]}}, {"type": "Feature", "properties": {}, "geometry": {"type": "Point", "coordinates": [-105.2742307, 40.0191493]}}, {"type": "Feature", "properties": {}, "geometry": {"type": "Point", "coordinates": [-105.2741163, 40.0191806]}}, {"type": "Feature", "properties": {}, "geometry": {"type": "Point", "coordinates": [-105.2739879, 40.019202]}}, {"type": "Feature", "properties": {}, "geometry": {"type": "Point", "coordinates": [-105.2745381, 40.0180835]}}, {"type": "Feature", "properties": {}, "geometry": {"type": "Point", "coordinates": [-105.2745643, 40.0181625]}}, {"type": "Feature", "properties": {}, "geometry": {"type": "Point", "coordinates": [-105.2745874, 40.018231]}}, {"type": "Feature", "properties": {}, "geometry": {"type": "Point", "coordinates": [-105.2746012, 40.0182841]}}, {"type": "Feature", "properties": {}, "geometry": {"type": "Point", "coordinates": [-105.2746197, 40.0183324]}}, {"type": "Feature", "properties": {}, "geometry": {"type": "Point", "coordinates": [-105.2752082, 40.0178759]}}, {"type": "Feature", "properties": {}, "geometry": {"type": "Point", "coordinates": [-105.2749864, 40.0179337]}}, {"type": "Feature", "properties": {}, "geometry": {"type": "Point", "coordinates": [-105.2746336, 40.0180045]}}, {"type": "Feature", "properties": {}, "geometry": {"type": "Point", "coordinates": [-105.2747245, 40.0178192]}}, {"type": "Feature", "properties": {}, "geometry": {"type": "Point", "coordinates": [-105.2750033, 40.0177602]}}, {"type": "Feature", "properties": {}, "geometry": {"type": "Point", "coordinates": [-105.2751142, 40.0177343]}}, {"type": "Feature", "properties": {}, "geometry": {"type": "Point", "coordinates": [-105.2751928, 40.0177178]}}, {"type": "Feature", "properties": {}, "geometry": {"type": "Point", "coordinates": [-105.2753931, 40.0176776]}}, {"type": "Feature", "properties": {}, "geometry": {"type": "Point", "coordinates": [-105.2754855, 40.0176611]}}, {"type": "Feature", "properties": {}, "geometry": {"type": "Point", "coordinates": [-105.2754285, 40.0171833]}}, {"type": "Feature", "properties": {}, "geometry": {"type": "Point", "coordinates": [-105.2754516, 40.0172553]}}, {"type": "Feature", "properties": {}, "geometry": {"type": "Point", "coordinates": [-105.275487, 40.0173343]}}, {"type": "Feature", "properties": {}, "geometry": {"type": "Point", "coordinates": [-105.2755055, 40.0174016]}}, {"type": "Feature", "properties": {}, "geometry": {"type": "Point", "coordinates": [-105.2755317, 40.0174688]}}, {"type": "Feature", "properties": {}, "geometry": {"type": "Point", "coordinates": [-105.2753946, 40.0170748]}}, {"type": "Feature", "properties": {}, "geometry": {"type": "Point", "coordinates": [-105.2753499, 40.0171715]}}, {"type": "Feature", "properties": {}, "geometry": {"type": "Point", "coordinates": [-105.2745473, 40.0170335]}}, {"type": "Feature", "properties": {}, "geometry": {"type": "Point", "coordinates": [-105.2743301, 40.0170842]}}, {"type": "Feature", "properties": {}, "geometry": {"type": "Point", "coordinates": [-105.2742315, 40.0172093]}}, {"type": "Feature", "properties": {}, "geometry": {"type": "Point", "coordinates": [-105.2742685, 40.0172966]}}, {"type": "Feature", "properties": {}, "geometry": {"type": "Point", "coordinates": [-105.2740636, 40.0172801]}}, {"type": "Feature", "properties": {}, "geometry": {"type": "Point", "coordinates": [-105.2740128, 40.0171267]}}, {"type": "Feature", "properties": {}, "geometry": {"type": "Point", "coordinates": [-105.2737878, 40.017122]}}, {"type": "Feature", "properties": {}, "geometry": {"type": "Point", "coordinates": [-105.2736323, 40.0172034]}}, {"type": "Feature", "properties": {}, "geometry": {"type": "Point", "coordinates": [-105.2730638, 40.0170547]}}, {"type": "Feature", "properties": {}, "geometry": {"type": "Point", "coordinates": [-105.2776587, 40.0187586]}}, {"type": "Feature", "properties": {}, "geometry": {"type": "Point", "coordinates": [-105.2776185, 40.0186549]}}, {"type": "Feature", "properties": {}, "geometry": {"type": "Point", "coordinates": [-105.2775045, 40.0185635]}}, {"type": "Feature", "properties": {}, "geometry": {"type": "Point", "coordinates": [-105.2774642, 40.0185193]}}, {"type": "Feature", "properties": {}, "geometry": {"type": "Point", "coordinates": [-105.277369, 40.0185584]}}, {"type": "Feature", "properties": {}, "geometry": {"type": "Point", "coordinates": [-105.2769922, 40.0185645]}}, {"type": "Feature", "properties": {}, "geometry": {"type": "Point", "coordinates": [-105.2764289, 40.0186549]}}, {"type": "Feature", "properties": {}, "geometry": {"type": "Point", "coordinates": [-105.2765483, 40.018695]}}, {"type": "Feature", "properties": {}, "geometry": {"type": "Point", "coordinates": [-105.2764758, 40.0187032]}}, {"type": "Feature", "properties": {}, "geometry": {"type": "Point", "coordinates": [-105.2764839, 40.0186652]}}, {"type": "Feature", "properties": {}, "geometry": {"type": "Point", "coordinates": [-105.2762559, 40.0186015]}}, {"type": "Feature", "properties": {}, "geometry": {"type": "Point", "coordinates": [-105.2761714, 40.018622]}}, {"type": "Feature", "properties": {}, "geometry": {"type": "Point", "coordinates": [-105.2762975, 40.0185933]}}, {"type": "Feature", "properties": {}, "geometry": {"type": "Point", "coordinates": [-105.2770861, 40.018545]}}, {"type": "Feature", "properties": {}, "geometry": {"type": "Point", "coordinates": [-105.2771598, 40.0185306]}}, {"type": "Feature", "properties": {}, "geometry": {"type": "Point", "coordinates": [-105.2772483, 40.0185122]}}, {"type": "Feature", "properties": {}, "geometry": {"type": "Point", "coordinates": [-105.2768728, 40.0185964]}}, {"type": "Feature", "properties": {}, "geometry": {"type": "Point", "coordinates": [-105.276728, 40.01862]}}, {"type": "Feature", "properties": {}, "geometry": {"type": "Point", "coordinates": [-105.2765536, 40.0186477]}}, {"type": "Feature", "properties": {}, "geometry": {"type": "Point", "coordinates": [-105.2762948, 40.0186333]}}, {"type": "Feature", "properties": {}, "geometry": {"type": "Point", "coordinates": [-105.2763471, 40.018583]}}, {"type": "Feature", "properties": {}, "geometry": {"type": "Point", "coordinates": [-105.2765147, 40.0185789]}}, {"type": "Feature", "properties": {}, "geometry": {"type": "Point", "coordinates": [-105.2767508, 40.0185276]}}, {"type": "Feature", "properties": {}, "geometry": {"type": "Point", "coordinates": [-105.2768071, 40.0185163]}}, {"type": "Feature", "properties": {}, "geometry": {"type": "Point", "coordinates": [-105.2769586, 40.0184844]}}, {"type": "Feature", "properties": {}, "geometry": {"type": "Point", "coordinates": [-105.2770485, 40.018467]}}, {"type": "Feature", "properties": {}, "geometry": {"type": "Point", "coordinates": [-105.2771799, 40.0184403]}}, {"type": "Feature", "properties": {}, "geometry": {"type": "Point", "coordinates": [-105.2783099, 40.0172731]}}]}